0 STARLINK-30443
1 57894U 23146D   24232.16097977  .00003428  00000-0  26856-3 0  9995
2 57894  42.9978 157.2756 0001956 329.9318  30.1412 15.02560078 51644
0 STARLINK-30443
1 57894U 23146D   24232.82577595 -.00000466  00000-0 -19436-4 0  9995
2 57894  43.0029 153.6595 0001514 272.1859  87.8810 15.02525130 51745
0 STARLINK-30467
1 57895U 23146E   24232.23079813  .00001598  00000-0  13332-3 0  9994
2 57895  43.0005 156.9345 0001112 259.6640 100.4077 15.02544166 51603
0 STARLINK-30467
1 57895U 23146E   24232.23079813  .00001598  00000-0  13332-3 0  9994
2 57895  43.0005 156.9345 0001112 259.6640 100.4077 15.02544166 51704
0 STARLINK-30467
1 57895U 23146E   24232.82913693  .00030628  00000-0  22772-2 0  9995
2 57895  42.9986 153.6839 0000553 220.7333 139.3468 15.02457814 51694
0 STARLINK-30469
1 57896U 23146F   24232.15765747 -.00000070  00000-0  98345-5 0  9998
2 57896  42.9989 157.2482 0000570 259.0926 100.9852 15.02551613 51642
0 STARLINK-30469
1 57896U 23146F   24232.49005661  .00000085  00000-0  21371-4 0  9996
2 57896  42.9947 155.4424 0000792 260.1501  99.9252 15.02530302 51744
0 STARLINK-30469
1 57896U 23146F   24232.49005661  .00000085  00000-0  21371-4 0  9996
2 57896  42.9947 155.4424 0000792 260.1501  99.9252 15.02530302 51698
0 STARLINK-30474
1 57897U 23146G   24232.15212392  .00007026  00000-0  53464-3 0  9990
2 57897  43.0021 157.2066 0001579 247.7717 112.2958 15.02539141 51591
0 STARLINK-30474
1 57897U 23146G   24232.48450937  .00012784  00000-0  95911-3 0  9995
2 57897  43.0026 155.4009 0001802 244.9195 115.1461 15.02558720 51743
0 STARLINK-30474
1 57897U 23146G   24232.81689240  .00009347  00000-0  70556-3 0  9992
2 57897  43.0023 153.5962 0001820 243.7112 116.3543 15.02564984 51690
0 STARLINK-30479
1 57898U 23146H   24232.48339809  .00002187  00000-0  17699-3 0  9993
2 57898  43.0040 155.3910 0002671 264.3243  95.7295 15.02525047 51749
0 STARLINK-30479
1 57898U 23146H   24232.48339809  .00002187  00000-0  17699-3 0  9993
2 57898  43.0040 155.3910 0002671 264.3243  95.7295 15.02525047 51693
0 STARLINK-30481
1 57899U 23146J   24232.14768595 -.00000511  00000-0 -22754-4 0  9995
2 57899  43.0057 157.1715 0001288 257.4175 102.6523 15.02523173 51482
0 STARLINK-30481
1 57899U 23146J   24232.48007077 -.00000075  00000-0  95237-5 0  9994
2 57899  43.0013 155.3692 0001484 257.1921 102.8756 15.02530396 51533
0 STARLINK-30481
1 57899U 23146J   24232.48007077 -.00000075  00000-0  95237-5 0  9994
2 57899  43.0013 155.3692 0001484 257.1921 102.8756 15.02530396 51746
0 STARLINK-30457
1 57900U 23146K   24232.13213849 -.00004980  00000-0 -35387-3 0  9993
2 57900  43.0019 157.0545 0001389 269.8523  90.2160 15.02534266 50639
0 STARLINK-30457
1 57900U 23146K   24232.13213849 -.00004980  00000-0 -35387-3 0  9993
2 57900  43.0019 157.0545 0001389 269.8523  90.2160 15.02534266 51483
0 STARLINK-30472
1 57901U 23146L   24231.25017151  .00000817  00000-0  75513-4 0  9993
2 57901  43.0009 161.6135 0001128 252.3634 107.7085 15.02537550 50501
0 STARLINK-30472
1 57901U 23146L   24232.18084696  .00004252  00000-0  32948-3 0  9995
2 57901  43.0023 156.5576 0001297 270.4691  89.6002 15.02555818 51651
0 STARLINK-30472
1 57901U 23146L   24232.51324769  .00001750  00000-0  14456-3 0  9994
2 57901  43.0028 154.7496 0000900 275.8600  84.2140 15.02535388 51706
0 STARLINK-30472
1 57901U 23146L   24232.51324769  .00001750  00000-0  14456-3 0  9994
2 57901  43.0028 154.7496 0000900 275.8600  84.2140 15.02535388 50693
0 STARLINK-30462
1 57902U 23146M   24232.14099562  .00004252  00000-0  32934-3 0  9995
2 57902  43.0028 157.1223 0001301 280.1253  79.9443 15.02568740 51593
0 STARLINK-30462
1 57902U 23146M   24232.47341654  .00003082  00000-0  24316-3 0  9998
2 57902  43.0021 155.3207 0001070 350.8278   9.2545 15.02524461 51640
0 STARLINK-30462
1 57902U 23146M   24232.47341654  .00003082  00000-0  24316-3 0  9998
2 57902  43.0021 155.3207 0001070 350.8278   9.2545 15.02524461 51707
0 STARLINK-30462
1 57902U 23146M   24232.80585592 -.00007609  00000-0 -54945-3 0  9998
2 57902  42.9974 153.5148 0000656 307.2880  52.7902 15.02493028 51692
0 STARLINK-30449
1 57903U 23146N   24232.11103521  .00002337  00000-0  18796-3 0  9996
2 57903  43.0036 156.8942 0001407 284.7349  75.3338 15.02554017 51584
0 STARLINK-30449
1 57903U 23146N   24232.50991577  .00001243  00000-0  10707-3 0  9994
2 57903  43.0012 154.7236 0001478 268.3477  91.7196 15.02533088 51645
0 STARLINK-30449
1 57903U 23146N   24232.50991577  .00001243  00000-0  10707-3 0  9994
2 57903  43.0012 154.7236 0001478 268.3477  91.7196 15.02533088 50699
0 STARLINK-30466
1 57904U 23146P   24231.87178649  .00005860  00000-0  44865-3 0  9992
2 57904  43.0027 158.5424 0000729 269.9894  90.0865 15.02522051 50597
0 STARLINK-30466
1 57904U 23146P   24232.47008683  .00016379  00000-0  12238-2 0  9994
2 57904  43.0024 155.2918 0000905 265.0292  95.0447 15.02565231 50689
0 STARLINK-30466
1 57904U 23146P   24232.47008683  .00016379  00000-0  12238-2 0  9994
2 57904  43.0024 155.2918 0000905 265.0292  95.0447 15.02565231 51646
0 STARLINK-30451
1 57905U 23146Q   24232.17418975  .00007104  00000-0  54019-3 0  9991
2 57905  43.0010 156.5060 0001528 254.3672 105.7002 15.02554617 51641
0 STARLINK-30451
1 57905U 23146Q   24232.50658690 -.00000486  00000-0 -20942-4 0  9995
2 57905  43.0013 154.7001 0000602 284.3417  75.7359 15.02535755 51699
0 STARLINK-30451
1 57905U 23146Q   24232.50658690 -.00000486  00000-0 -20942-4 0  9995
2 57905  43.0013 154.7001 0000602 284.3417  75.7359 15.02535755 50698
0 STARLINK-30428
1 57906U 23146R   24232.13435899  .00018571  00000-0  13843-2 0  9991
2 57906  43.0019 157.0723 0001311 279.4521  80.6174 15.02588211 50630
0 STARLINK-30428
1 57906U 23146R   24232.13435899  .00018571  00000-0  13843-2 0  9991
2 57906  43.0019 157.0723 0001311 279.4521  80.6174 15.02588211 51428
0 STARLINK-30428
1 57906U 23146R   24232.79913222 -.00007410  00000-0 -53381-3 0  9998
2 57906  43.0001 153.4573 0001179 245.3121 114.7598 15.02551077 51522
0 STARLINK-30482
1 57907U 23146S   24232.13103190 -.00003155  00000-0 -21863-3 0  9994
2 57907  43.0022 157.0499 0001456 263.4539  96.6138 15.02523526 51273
0 STARLINK-30482
1 57907U 23146S   24232.13103190 -.00003155  00000-0 -21863-3 0  9994
2 57907  43.0022 157.0499 0001456 263.4539  96.6138 15.02523526 50643
0 STARLINK-30482
1 57907U 23146S   24232.79581135  .00001188  00000-0  10303-3 0  9994
2 57907  43.0026 153.4342 0001481 258.5708 101.4968 15.02530018 51376
0 STARLINK-30464
1 57908U 23146T   24232.19085522 -.00000972  00000-0 -56874-4 0  9994
2 57908  43.0040 156.6360 0001564 263.6995  96.3669 15.02524573 50643
0 STARLINK-30463
1 57909U 23146U   24232.12768286  .00002400  00000-0  19256-3 0  9991
2 57909  43.0031 157.0234 0000965 260.2116  99.8617 15.02562314 50636
0 STARLINK-30463
1 57909U 23146U   24232.12768286  .00002400  00000-0  19256-3 0  9991
2 57909  43.0031 157.0234 0000965 260.2116  99.8617 15.02562314 51648
0 STARLINK-30463
1 57909U 23146U   24232.79247644 -.00000897  00000-0 -51348-4 0  9993
2 57909  43.0012 153.4133 0000939 270.6318  89.4417 15.02533944 51746
0 STARLINK-30453
1 57910U 23146V   24232.18752725 -.00000375  00000-0 -12719-4 0  9999
2 57910  43.0044 156.6123 0001497 279.7016  80.3657 15.02526295 51604
0 STARLINK-30453
1 57910U 23146V   24232.51992303 -.00001402  00000-0 -88748-4 0  9991
2 57910  43.0036 154.8068 0001499 277.8901  82.1771 15.02521719 50698
0 STARLINK-30478
1 57911U 23146W   24231.84069832  .00002751  00000-0  21866-3 0  9992
2 57911  43.0031 158.3057 0001597 264.8050  95.2610 15.02534815 51656
0 STARLINK-30478
1 57911U 23146W   24232.17309321  .00000434  00000-0  47205-4 0  9991
2 57911  43.0026 156.4989 0001462 262.6168  97.4508 15.02526299 51848
0 STARLINK-30478
1 57911U 23146W   24232.50547855  .00002080  00000-0  16902-3 0  9992
2 57911  43.0028 154.6931 0001600 259.9560 100.1102 15.02535068 51752
0 STARLINK-30478
1 57911U 23146W   24232.50547855  .00002080  00000-0  16902-3 0  9992
2 57911  43.0028 154.6931 0001600 259.9560 100.1102 15.02535068 51897
0 STARLINK-30477
1 57912U 23146X   24232.11771045 -.00000666  00000-0 -34213-4 0  9996
2 57912  43.0023 156.9485 0001398 254.5677 105.5011 15.02528595 51699
0 STARLINK-30450
1 57913U 23147A   24231.90479113 -.00001622  00000-0 -10494-3 0  9992
2 57913  43.0036 171.6469 0001930 278.1028  81.9595 15.02552602 51177
0 STARLINK-30450
1 57913U 23147A   24232.17071112 -.00001311  00000-0 -81945-4 0  9994
2 57913  43.0041 170.2021 0001631 270.5406  89.5250 15.02537626 51133
0 STARLINK-30450
1 57913U 23147A   24232.23719210 -.00001900  00000-0 -12560-3 0  9999
2 57913  43.0043 169.8413 0001626 270.5590  89.5066 15.02534234 51229
0 STARLINK-30483
1 57914U 23147B   24232.13354869 -.00002668  00000-0 -92215-4 0  9992
2 57914  43.0023 140.1627 0001189 268.1896  91.8818 15.25901516 51488
0 STARLINK-30483
1 57914U 23147B   24232.46084628 -.00003240  00000-0 -11412-3 0  9997
2 57914  43.0004 138.3214 0000950 281.8733  78.2011 15.25896452 51616
0 STARLINK-30454
1 57915U 23147C   24232.16404927  .00011467  00000-0  86192-3 0  9998
2 57915  42.9997 170.1517 0001465 262.8881  97.1794 15.02563087 51136
0 STARLINK-30454
1 57915U 23147C   24232.23052744  .00008278  00000-0  62677-3 0  9990
2 57915  43.0026 169.7898 0001233 264.7587  95.3115 15.02558279 51228
0 STARLINK-30454
1 57915U 23147C   24232.82882649  .00002813  00000-0  22316-3 0  9995
2 57915  42.9974 166.5443 0000920 347.6207  12.4613 15.02550048 51231
0 STARLINK-30501
1 57917U 23147E   24232.16071771  .00005383  00000-0  41315-3 0  9995
2 57917  43.0032 170.1272 0001109 273.1805  86.8911 15.02543063 51244
0 STARLINK-30501
1 57917U 23147E   24232.82550736 -.00000884  00000-0 -50392-4 0  9990
2 57917  43.0021 166.5133 0001133 265.3408  94.7305 15.02549570 51352
